[{"OBJECT_NAME":"TRANSPORTER-10 OBJECT AG","OBJECT_ID":"2024-043AG","EPOCH":"2026-03-09T22:12:45.387648","MEAN_MOTION":15.30759727,"ECCENTRICITY":0.00093005,"INCLINATION":97.5471,"RA_OF_ASC_NODE":205.7101,"ARG_OF_PERICENTER":226.5958,"MEAN_ANOMALY":133.4509,"EPHEMERIS_TYPE":0,"CLASSIFICATION_TYPE":"U","NORAD_CAT_ID":59128,"ELEMENT_SET_NO":999,"REV_AT_EPOCH":11192,"BSTAR":0.00032170115,"MEAN_MOTION_DOT":9.498e-5,"MEAN_MOTION_DDOT":0},{"OBJECT_NAME":"STARLINK-35628","OBJECT_ID":"2025-237K","EPOCH":"2026-03-09T07:13:13.880640","MEAN_MOTION":15.30231167,"ECCENTRICITY":0.00018839,"INCLINATION":53.1613,"RA_OF_ASC_NODE":41.2399,"ARG_OF_PERICENTER":72.1118,"MEAN_ANOMALY":288.0088,"EPHEMERIS_TYPE":0,"CLASSIFICATION_TYPE":"U","NORAD_CAT_ID":66123,"ELEMENT_SET_NO":999,"REV_AT_EPOCH":2255,"BSTAR":0.0008789481,"MEAN_MOTION_DOT":0.00025788,"MEAN_MOTION_DDOT":0}]
